NORAD_CAT_ID,OBJECT_NAME,OBJECT_TYPE,EPOCH,MEAN_MOTION,ECCENTRICITY,INCLINATION,RA_OF_ASC_NODE,ARG_OF_PERICENTER,MEAN_ANOMALY,BSTAR,MEAN_MOTION_DOT,MEAN_MOTION_DDOT,TLE_LINE0,TLE_LINE1,TLE_LINE2,SEMIMAJOR_AXIS,PERIOD,APOGEE,PERIGEE,DECAYED
55402.0,STARLINK-5071,PAYLOAD,2023-02-07 16:00:01,15.71969303,0.0003312,70.0081,70.0775,272.5172,310.891,-0.010914,-0.01281874,0.0,0 STARLINK-5071,1 55402U 23014M   23038.66668981 -.01281874  00000-0 -10914-1 0  9991,2 55402  70.0081  70.0775 0003312 272.5172 310.8910 15.71969303  1305,6731.406,91.605,355.501,351.042,0.0
55402.0,STARLINK-5071,PAYLOAD,2023-02-07 22:00:00,15.71243971,0.0003459,70.008,69.373,267.5825,289.7867,-0.010011,-0.01134878,0.0,0 STARLINK-5071,1 55402U 23014M   23038.91667824 -.01134878  00000-0 -10011-1 0  9993,2 55402  70.0080  69.3730 0003459 267.5825 289.7867 15.71243971  1308,6733.478,91.647,357.672,353.014,0.0
55402.0,STARLINK-5071,PAYLOAD,2023-02-08 06:00:00,15.70190314,0.0003699,70.0076,68.435,271.2271,10.5826,-0.0034499,-0.00400335,0.0,0 STARLINK-5071,1 55402U 23014M   23039.25001157 -.00400335  00000-0 -34499-2 0  9992,2 55402  70.0076  68.4350 0003699 271.2271  10.5826 15.70190314  1399,6736.49,91.709,360.846,355.863,0.0
55402.0,STARLINK-5071,PAYLOAD,2023-02-08 14:00:01,15.69923345,0.0003559,70.0062,67.4976,275.9258,89.3535,2.6842e-05,3.016e-05,0.0,0 STARLINK-5071,1 55402U 23014M   23039.58334491  .00003016  00000-0  26842-4 0  9996,2 55402  70.0062  67.4976 0003559 275.9258  89.3535 15.69923345  1441,6737.253,91.724,361.516,356.721,0.0
55402.0,STARLINK-5071,PAYLOAD,2023-02-08 20:00:01,15.69902971,0.0003385,70.0048,66.7951,270.9474,66.8483,0.00018155,0.00021654,0.0,0 STARLINK-5071,1 55402U 23014M   23039.83334491  .00021654  00000-0  18155-3 0  9999,2 55402  70.0048  66.7951 0003385 270.9474  66.8483 15.69902971  1301,6737.312,91.725,361.457,356.896,0.0
55402.0,STARLINK-5071,PAYLOAD,2023-02-09 12:00:00,15.69902562,0.0003416,70.001,64.9213,276.0435,228.4127,0.00034783,0.00041782,0.0,0 STARLINK-5071,1 55402U 23014M   23040.50001157  .00041782  00000-0  34783-3 0  9994,2 55402  70.0010  64.9213 0003416 276.0435 228.4127 15.69902562  1307,6737.313,91.725,361.479,356.876,0.0
55402.0,STARLINK-5071,PAYLOAD,2023-02-09 20:00:01,15.69877424,0.0003455,70.0012,63.9842,281.8055,305.8893,0.0012426,0.00151638,0.0,0 STARLINK-5071,1 55402U 23014M   23040.83334491  .00151638  00000-0  12426-2 0  9991,2 55402  70.0012  63.9842 0003455 281.8055 305.8893 15.69877424  1646,6737.385,91.727,361.577,356.922,0.0
55402.0,STARLINK-5071,PAYLOAD,2023-02-09 22:00:00,15.69877028,0.0003443,70.0011,63.75,281.0662,57.432,0.0013043,0.00159322,0.0,0 STARLINK-5071,1 55402U 23014M   23040.91667824  .00159322  00000-0  13043-2 0  9993,2 55402  70.0011  63.7500 0003443 281.0662  57.4320 15.69877028  1653,6737.386,91.727,361.571,356.931,0.0
55402.0,STARLINK-5071,PAYLOAD,2023-02-10 04:00:00,15.70006084,0.0003494,70.0007,63.0472,281.5148,29.4774,-0.00019779,-0.00024009,0.0,0 STARLINK-5071,1 55402U 23014M   23041.16667824 -.00024009  00000-0 -19779-3 0  9999,2 55402  70.0007  63.0472 0003494 281.5148  29.4774 15.70006084  1301,6737.017,91.719,361.236,356.528,0.0
55402.0,STARLINK-5071,PAYLOAD,2023-02-10 16:00:00,15.69937923,0.0003302,69.9996,61.6411,279.8139,336.3286,-0.00052746,-0.00063196,0.0,0 STARLINK-5071,1 55402U 23014M   23041.66667824 -.00063196  00000-0 -52746-3 0  9995,2 55402  69.9996  61.6411 0003302 279.8139 336.3286 15.69937923  1772,6737.212,91.723,361.301,356.852,0.0
55402.0,STARLINK-5071,PAYLOAD,2023-02-10 22:00:00,15.69860814,0.0003297,69.9999,60.9384,275.6616,312.9817,0.0011502,0.00140052,0.0,0 STARLINK-5071,1 55402U 23014M   23041.91667824  .00140052  00000-0  11502-2 0  9992,2 55402  69.9999  60.9384 0003297 275.6616 312.9817 15.69860814  1306,6737.432,91.728,361.519,357.076,0.0
55402.0,STARLINK-5071,PAYLOAD,2023-02-11 06:00:00,15.69944656,0.0003363,69.9999,60.0015,282.3004,29.6771,-0.00068387,-0.00081717,0.0,0 STARLINK-5071,1 55402U 23014M   23042.25001157 -.00081717  00000-0 -68387-3 0  9999,2 55402  69.9999  60.0015 0003363 282.3004  29.6771 15.69944656  1867,6737.192,91.723,361.323,356.792,0.0
55402.0,STARLINK-5071,PAYLOAD,2023-02-11 14:00:01,15.69946316,0.0003432,69.9991,59.064,285.6799,109.6227,-0.00039108,-0.00047018,0.0,0 STARLINK-5071,1 55402U 23014M   23042.58334491 -.00047018  00000-0 -39108-3 0  9990,2 55402  69.9991  59.0640 0003432 285.6799 109.6227 15.69946316  1911,6737.188,91.723,361.365,356.74,0.0
55402.0,STARLINK-5071,PAYLOAD,2023-02-11 22:00:00,15.69865668,0.0003318,69.9992,58.1269,274.3004,204.3472,0.00092878,0.00112703,0.0,0 STARLINK-5071,1 55402U 23014M   23042.91667824  .00112703  00000-0  92878-3 0  9991,2 55402  69.9992  58.1269 0003318 274.3004 204.3472 15.69865668  1304,6737.418,91.728,361.519,357.048,0.0
55402.0,STARLINK-5071,PAYLOAD,2023-02-12 00:00:00,15.69913455,0.000332,69.9993,57.8926,273.129,316.3312,0.00029673,0.00035602,0.0,0 STARLINK-5071,1 55402U 23014M   23043.00001157  .00035602  00000-0  29673-3 0  9998,2 55402  69.9993  57.8926 0003320 273.1290 316.3312 15.69913455  1987,6737.282,91.725,361.383,356.91,0.0
55402.0,STARLINK-5071,PAYLOAD,2023-02-12 22:00:00,15.6987832,0.0003415,69.9997,55.3153,272.0449,96.5995,0.00090219,0.00109487,0.0,0 STARLINK-5071,1 55402U 23014M   23043.91667824  .00109487  00000-0  90219-3 0  9994,2 55402  69.9997  55.3153 0003415 272.0449  96.5995 15.69878320  2127,6737.382,91.727,361.548,356.946,0.0
55402.0,STARLINK-5071,PAYLOAD,2023-02-13 06:00:00,15.6993749,0.0003539,70.0,54.3782,276.1101,175.8594,-0.00035064,-0.00042188,0.0,0 STARLINK-5071,1 55402U 23014M   23044.25001157 -.00042188  00000-0 -35064-3 0  9996,2 55402  70.0000  54.3782 0003539 276.1101 175.8594 15.69937490  2174,6737.213,91.723,361.462,356.694,0.0
55402.0,STARLINK-5071,PAYLOAD,2023-02-13 14:00:01,15.69946225,0.0003526,69.9995,53.441,276.857,258.4416,-0.00048052,-0.00057651,0.0,0 STARLINK-5071,1 55402U 23014M   23044.58334491 -.00057651  00000-0 -48052-3 0  9994,2 55402  69.9995  53.4410 0003526 276.8570 258.4416 15.69946225  1306,6737.188,91.723,361.428,356.677,0.0
55402.0,STARLINK-5071,PAYLOAD,2023-02-13 22:00:00,15.69899477,0.0003522,69.9995,52.5038,268.629,350.0151,0.00057931,0.00069958,0.0,0 STARLINK-5071,1 55402U 23014M   23044.91667824  .00069958  00000-0  57931-3 0  9997,2 55402  69.9995  52.5038 0003522 268.6290 350.0151 15.69899477  2285,6737.322,91.726,361.559,356.814,0.0
55402.0,STARLINK-5071,PAYLOAD,2023-02-14 00:00:00,15.69945575,0.0003459,69.9997,52.2696,269.1431,100.3207,-0.00013698,-0.00016666,0.0,0 STARLINK-5071,1 55402U 23014M   23045.00001157 -.00016666  00000-0 -13698-3 0  9991,2 55402  69.9997  52.2696 0003459 269.1431 100.3207 15.69945575  2296,6737.19,91.723,361.385,356.724,0.0
55402.0,STARLINK-5071,PAYLOAD,2023-02-14 12:11:39,15.69932524,0.0002448,70.0008,50.8401,314.9099,45.1898,0.00011617,0.00013782,0.0,0 STARLINK-5071,1 55402U 23014M   23045.50809073  .00013782  00000-0  11617-3 0  9992,2 55402  70.0008  50.8401 0002448 314.9099  45.1898 15.69932524  3312,6737.227,91.724,360.741,357.443,0.0
55402.0,STARLINK-5071,PAYLOAD,2023-02-15 03:29:09,15.69937668,0.0003518,69.9992,49.0495,268.3219,91.7574,5.4803e-05,6.386e-05,0.0,0 STARLINK-5071,1 55402U 23014M   23046.14524452  .00006386  00000-0  54803-4 0  9995,2 55402  69.9992  49.0495 0003518 268.3219  91.7574 15.69937668  2477,6737.212,91.723,361.447,356.707,0.0
55402.0,STARLINK-5071,PAYLOAD,2023-02-15 09:36:10,15.69923612,0.0003585,69.9991,48.3326,267.2008,92.8777,1.2596e-05,1.302e-05,0.0,0 STARLINK-5071,1 55402U 23014M   23046.40011596  .00001302  00000-0  12596-4 0  9990,2 55402  69.9991  48.3326 0003585 267.2008  92.8777 15.69923612  2515,6737.253,91.724,361.533,356.702,0.0
55402.0,STARLINK-5071,PAYLOAD,2023-02-15 12:39:39,15.6993485,0.000363,69.9992,47.9744,264.3342,95.744,4.8598e-05,5.637e-05,0.0,0 STARLINK-5071,1 55402U 23014M   23046.52754596  .00005637  00000-0  48598-4 0  9993,2 55402  69.9992  47.9744 0003630 264.3342  95.7440 15.69934850  3476,6737.22,91.724,361.531,356.64,0.0
55402.0,STARLINK-5071,PAYLOAD,2023-02-15 18:46:40,15.69936943,0.0003387,69.9991,47.2574,268.1258,91.955,4.8671e-05,5.647e-05,0.0,0 STARLINK-5071,1 55402U 23014M   23046.78241291  .00005647  00000-0  48671-4 0  9997,2 55402  69.9991  47.2574 0003387 268.1258  91.9550 15.69936943  2571,6737.214,91.723,361.361,356.798,0.0
55402.0,STARLINK-5071,PAYLOAD,2023-02-15 20:18:25,15.69932924,0.000358,69.9989,47.0785,267.5509,92.5277,3.7857e-05,4.343e-05,0.0,0 STARLINK-5071,1 55402U 23014M   23046.84612994  .00004343  00000-0  37857-4 0  9992,2 55402  69.9989  47.0785 0003580 267.5509  92.5277 15.69932924  3521,6737.226,91.724,361.503,356.679,0.0
55402.0,STARLINK-5071,PAYLOAD,2023-02-16 02:25:25,15.69950923,0.0003532,69.9986,46.362,261.0482,99.0314,7.5275e-05,8.858e-05,0.0,0 STARLINK-5071,1 55402U 23014M   23047.10098757  .00008858  00000-0  75275-4 0  9998,2 55402  69.9986  46.3620 0003532 261.0482  99.0314 15.69950923  2627,6737.174,91.723,361.419,356.66,0.0
55402.0,STARLINK-5071,PAYLOAD,2023-02-16 10:04:12,15.69910612,0.0003514,69.9985,45.4663,271.4084,88.6709,-2.3656e-05,-3.055e-05,0.0,0 STARLINK-5071,1 55402U 23014M   23047.41958825 -.00003055  00000-0 -23656-4 0  9995,2 55402  69.9985  45.4663 0003514 271.4084  88.6709 15.69910612  2674,6737.29,91.725,361.522,356.787,0.0
55402.0,STARLINK-5071,PAYLOAD,2023-02-16 14:39:27,15.69915487,0.0003453,69.998,44.9284,269.8352,90.2448,-3.2778e-06,-6.07e-06,0.0,0 STARLINK-5071,1 55402U 23014M   23047.61073979 -.00000607  00000-0 -32778-5 0  9991,2 55402  69.9980  44.9284 0003453 269.8352  90.2448 15.69915487  3645,6737.276,91.725,361.467,356.814,0.0
55402.0,STARLINK-5071,PAYLOAD,2023-02-16 19:14:42,15.6993212,0.000327,69.998,44.3906,263.4892,96.5932,2.3793e-05,2.65e-05,0.0,0 STARLINK-5071,1 55402U 23014M   23047.80188189  .00002650  00000-0  23793-4 0  9996,2 55402  69.9980  44.3906 0003270 263.4892  96.5932 15.69932120  2735,6737.228,91.724,361.296,356.89,0.0
